[{"OBJECT_NAME":"KOSEN-1","OBJECT_ID":"2021-102H","EPOCH":"2026-03-04T02:21:58.927680","MEAN_MOTION":15.2519866,"ECCENTRICITY":0.00133167,"INCLINATION":97.3338,"RA_OF_ASC_NODE":107.3342,"ARG_OF_PERICENTER":213.001,"MEAN_ANOMALY":147.0398,"EPHEMERIS_TYPE":0,"CLASSIFICATION_TYPE":"U","NORAD_CAT_ID":49402,"ELEMENT_SET_NO":999,"REV_AT_EPOCH":23799,"BSTAR":0.00047122842,"MEAN_MOTION_DOT":0.00011794,"MEAN_MOTION_DDOT":0},{"OBJECT_NAME":"GLOBAL-14","OBJECT_ID":"2021-106A","EPOCH":"2026-03-04T18:22:10.109856","MEAN_MOTION":15.45394083,"ECCENTRICITY":0.0012984,"INCLINATION":42.0046,"RA_OF_ASC_NODE":189.3127,"ARG_OF_PERICENTER":11.4833,"MEAN_ANOMALY":348.6303,"EPHEMERIS_TYPE":0,"CLASSIFICATION_TYPE":"U","NORAD_CAT_ID":49469,"ELEMENT_SET_NO":999,"REV_AT_EPOCH":24194,"BSTAR":0.00068728,"MEAN_MOTION_DOT":0.00033612,"MEAN_MOTION_DDOT":0},{"OBJECT_NAME":"GAOFEN-3 02","OBJECT_ID":"2021-109A","EPOCH":"2026-03-04T20:14:00.728736","MEAN_MOTION":14.42214271,"ECCENTRICITY":0.0001849,"INCLINATION":98.4124,"RA_OF_ASC_NODE":73.4053,"ARG_OF_PERICENTER":329.9199,"MEAN_ANOMALY":30.1884,"EPHEMERIS_TYPE":0,"CLASSIFICATION_TYPE":"U","NORAD_CAT_ID":49495,"ELEMENT_SET_NO":999,"REV_AT_EPOCH":22527,"BSTAR":6.7835e-6,"MEAN_MOTION_DOT":-2.1e-7,"MEAN_MOTION_DDOT":0},{"OBJECT_NAME":"GLOBAL-12","OBJECT_ID":"2021-115BA","EPOCH":"2026-03-04T08:03:33.805152","MEAN_MOTION":15.47445202,"ECCENTRICITY":0.000282,"INCLINATION":53.1967,"RA_OF_ASC_NODE":186.4384,"ARG_OF_PERICENTER":54.5125,"MEAN_ANOMALY":305.6146,"EPHEMERIS_TYPE":0,"CLASSIFICATION_TYPE":"U","NORAD_CAT_ID":49772,"ELEMENT_SET_NO":999,"REV_AT_EPOCH":23963,"BSTAR":0.00087367612,"MEAN_MOTION_DOT":0.00045354,"MEAN_MOTION_DDOT":0},{"OBJECT_NAME":"GLOBAL-13","OBJECT_ID":"2021-115BB","EPOCH":"2026-03-04T12:29:50.371296","MEAN_MOTION":15.418926,"ECCENTRICITY":0.0002199,"INCLINATION":53.1987,"RA_OF_ASC_NODE":190.663,"ARG_OF_PERICENTER":131.6292,"MEAN_ANOMALY":228.4903,"EPHEMERIS_TYPE":0,"CLASSIFICATION_TYPE":"U","NORAD_CAT_ID":49773,"ELEMENT_SET_NO":999,"REV_AT_EPOCH":23959,"BSTAR":0.00065336,"MEAN_MOTION_DOT":0.00027871,"MEAN_MOTION_DDOT":0},{"OBJECT_NAME":"GLOBAL-17","OBJECT_ID":"2021-120A","EPOCH":"2026-03-04T17:44:49.477920","MEAN_MOTION":15.46681828,"ECCENTRICITY":0.0011952,"INCLINATION":41.9962,"RA_OF_ASC_NODE":309.1618,"ARG_OF_PERICENTER":244.2687,"MEAN_ANOMALY":115.6922,"EPHEMERIS_TYPE":0,"CLASSIFICATION_TYPE":"U","NORAD_CAT_ID":49949,"ELEMENT_SET_NO":999,"REV_AT_EPOCH":23869,"BSTAR":0.00070573,"MEAN_MOTION_DOT":0.00036095,"MEAN_MOTION_DDOT":0},{"OBJECT_NAME":"GLOBAL-16","OBJECT_ID":"2021-120B","EPOCH":"2026-03-04T01:08:20.030784","MEAN_MOTION":15.45050733,"ECCENTRICITY":0.00097086,"INCLINATION":41.9963,"RA_OF_ASC_NODE":315.2655,"ARG_OF_PERICENTER":230.9734,"MEAN_ANOMALY":129.0244,"EPHEMERIS_TYPE":0,"CLASSIFICATION_TYPE":"U","NORAD_CAT_ID":49950,"ELEMENT_SET_NO":999,"REV_AT_EPOCH":23855,"BSTAR":0.00071468171,"MEAN_MOTION_DOT":0.0003451,"MEAN_MOTION_DDOT":0},{"OBJECT_NAME":"XW-3 (CAS-9)","OBJECT_ID":"2021-131B","EPOCH":"2026-03-04T20:27:42.636384","MEAN_MOTION":14.41243556,"ECCENTRICITY":0.0005063,"INCLINATION":98.4968,"RA_OF_ASC_NODE":156.8359,"ARG_OF_PERICENTER":61.4368,"MEAN_ANOMALY":298.733,"EPHEMERIS_TYPE":0,"CLASSIFICATION_TYPE":"U","NORAD_CAT_ID":50466,"ELEMENT_SET_NO":999,"REV_AT_EPOCH":22008,"BSTAR":0.00026718,"MEAN_MOTION_DOT":8.19e-6,"MEAN_MOTION_DDOT":0},{"OBJECT_NAME":"ION SCV-004","OBJECT_ID":"2022-002K","EPOCH":"2026-03-04T12:28:42.171456","MEAN_MOTION":15.29291287,"ECCENTRICITY":0.0007776,"INCLINATION":97.2973,"RA_OF_ASC_NODE":123.1571,"ARG_OF_PERICENTER":19.7047,"MEAN_ANOMALY":340.4493,"EPHEMERIS_TYPE":0,"CLASSIFICATION_TYPE":"U","NORAD_CAT_ID":50993,"ELEMENT_SET_NO":999,"REV_AT_EPOCH":22929,"BSTAR":0.0002917,"MEAN_MOTION_DOT":8.222e-5,"MEAN_MOTION_DDOT":0},{"OBJECT_NAME":"ETV-A1","OBJECT_ID":"2022-002CE","EPOCH":"2026-03-04T19:47:16.458720","MEAN_MOTION":15.38305191,"ECCENTRICITY":0.0005359,"INCLINATION":97.3,"RA_OF_ASC_NODE":130.5468,"ARG_OF_PERICENTER":19.465,"MEAN_ANOMALY":340.6799,"EPHEMERIS_TYPE":0,"CLASSIFICATION_TYPE":"U","NORAD_CAT_ID":51060,"ELEMENT_SET_NO":999,"REV_AT_EPOCH":22978,"BSTAR":0.00040687,"MEAN_MOTION_DOT":0.00015297,"MEAN_MOTION_DDOT":0},{"OBJECT_NAME":"BRO-5","OBJECT_ID":"2022-002CF","EPOCH":"2026-03-04T20:23:36.136320","MEAN_MOTION":15.43238455,"ECCENTRICITY":0.0004735,"INCLINATION":97.31,"RA_OF_ASC_NODE":136.9125,"ARG_OF_PERICENTER":6.6276,"MEAN_ANOMALY":353.5034,"EPHEMERIS_TYPE":0,"CLASSIFICATION_TYPE":"U","NORAD_CAT_ID":51061,"ELEMENT_SET_NO":999,"REV_AT_EPOCH":23014,"BSTAR":0.00037465,"MEAN_MOTION_DOT":0.00016577,"MEAN_MOTION_DDOT":0},{"OBJECT_NAME":"LUDI TANCE 1-01A (L-SAR 01A)","OBJECT_ID":"2022-007A","EPOCH":"2026-03-04T20:16:46.080192","MEAN_MOTION":14.8841731,"ECCENTRICITY":0.0001586,"INCLINATION":97.8115,"RA_OF_ASC_NODE":72.7534,"ARG_OF_PERICENTER":91.0454,"MEAN_ANOMALY":269.0944,"EPHEMERIS_TYPE":0,"CLASSIFICATION_TYPE":"U","NORAD_CAT_ID":51284,"ELEMENT_SET_NO":999,"REV_AT_EPOCH":22295,"BSTAR":0.0001308,"MEAN_MOTION_DOT":1.158e-5,"MEAN_MOTION_DDOT":0},{"OBJECT_NAME":"INSPIRESAT 1","OBJECT_ID":"2022-013B","EPOCH":"2026-03-04T14:05:09.152736","MEAN_MOTION":15.76795671,"ECCENTRICITY":0.0004797,"INCLINATION":97.4482,"RA_OF_ASC_NODE":110.6617,"ARG_OF_PERICENTER":97.8169,"MEAN_ANOMALY":262.3641,"EPHEMERIS_TYPE":0,"CLASSIFICATION_TYPE":"U","NORAD_CAT_ID":51657,"ELEMENT_SET_NO":999,"REV_AT_EPOCH":22607,"BSTAR":0.0010325,"MEAN_MOTION_DOT":0.0016841,"MEAN_MOTION_DDOT":0},{"OBJECT_NAME":"LUDI TANCE 1-01B (L-SAR 01B)","OBJECT_ID":"2022-018A","EPOCH":"2026-03-04T21:05:06.347616","MEAN_MOTION":14.88420398,"ECCENTRICITY":0.0001619,"INCLINATION":97.8122,"RA_OF_ASC_NODE":72.7752,"ARG_OF_PERICENTER":89.4506,"MEAN_ANOMALY":270.6896,"EPHEMERIS_TYPE":0,"CLASSIFICATION_TYPE":"U","NORAD_CAT_ID":51822,"ELEMENT_SET_NO":999,"REV_AT_EPOCH":21819,"BSTAR":2.686e-5,"MEAN_MOTION_DOT":1.95e-6,"MEAN_MOTION_DDOT":0},{"OBJECT_NAME":"2022-019D","OBJECT_ID":"2022-019D","EPOCH":"2026-03-04T20:38:14.390592","MEAN_MOTION":15.58354109,"ECCENTRICITY":0.0007167,"INCLINATION":97.3703,"RA_OF_ASC_NODE":151.7224,"ARG_OF_PERICENTER":158.8909,"MEAN_ANOMALY":201.2644,"EPHEMERIS_TYPE":0,"CLASSIFICATION_TYPE":"U","NORAD_CAT_ID":51827,"ELEMENT_SET_NO":999,"REV_AT_EPOCH":22339,"BSTAR":0.00075601,"MEAN_MOTION_DOT":0.00057656,"MEAN_MOTION_DDOT":0},{"OBJECT_NAME":"JILIN-1 GAOFEN 03D14","OBJECT_ID":"2022-019H","EPOCH":"2026-03-04T18:51:50.261760","MEAN_MOTION":15.7767291,"ECCENTRICITY":0.0004663,"INCLINATION":97.3706,"RA_OF_ASC_NODE":156.702,"ARG_OF_PERICENTER":160.6466,"MEAN_ANOMALY":199.4978,"EPHEMERIS_TYPE":0,"CLASSIFICATION_TYPE":"U","NORAD_CAT_ID":51831,"ELEMENT_SET_NO":999,"REV_AT_EPOCH":22370,"BSTAR":0.0012578,"MEAN_MOTION_DOT":0.00214407,"MEAN_MOTION_DDOT":0},{"OBJECT_NAME":"2022-019J","OBJECT_ID":"2022-019J","EPOCH":"2026-03-04T21:04:04.338336","MEAN_MOTION":15.19936993,"ECCENTRICITY":0.0007454,"INCLINATION":97.3548,"RA_OF_ASC_NODE":129.3616,"ARG_OF_PERICENTER":226.1367,"MEAN_ANOMALY":133.9253,"EPHEMERIS_TYPE":0,"CLASSIFICATION_TYPE":"U","NORAD_CAT_ID":51832,"ELEMENT_SET_NO":999,"REV_AT_EPOCH":22195,"BSTAR":8.3571e-5,"MEAN_MOTION_DOT":1.73e-5,"MEAN_MOTION_DDOT":0}]
