KOSEN-1                 
1 49402U 21102H   26063.09859870  .00011794  00000+0  47123-3 0  9999
2 49402  97.3338 107.3342 0013316 213.0010 147.0398 15.25198660237990
GLOBAL-14               
1 49469U 21106A   26063.76539479  .00033612  00000+0  68728-3 0  9997
2 49469  42.0046 189.3127 0012984  11.4833 348.6303 15.45394083241944
GAOFEN-3 02             
1 49495U 21109A   26063.84306399 -.00000021  00000+0  67835-5 0  9990
2 49495  98.4124  73.4053 0001849 329.9199  30.1884 14.42214271225277
GLOBAL-12               
1 49772U 21115BA  26063.33580793  .00045354  00000+0  87368-3 0  9999
2 49772  53.1967 186.4384 0002820  54.5125 305.6146 15.47445202239632
GLOBAL-13               
1 49773U 21115BB  26063.52072189  .00027871  00000+0  65336-3 0  9991
2 49773  53.1987 190.6630 0002199 131.6292 228.4903 15.41892600239597
GLOBAL-17               
1 49949U 21120A   26063.73946155  .00036095  00000+0  70573-3 0  9995
2 49949  41.9962 309.1618 0011952 244.2687 115.6922 15.46681828238690
GLOBAL-16               
1 49950U 21120B   26063.04745406  .00034510  00000+0  71468-3 0  9991
2 49950  41.9963 315.2655 0009708 230.9734 129.0244 15.45050733238558
XW-3 (CAS-9)            
1 50466U 21131B   26063.85257681  .00000819  00000+0  26718-3 0  9992
2 50466  98.4968 156.8359 0005063  61.4368 298.7330 14.41243556220085
ION SCV-004             
1 50993U 22002K   26063.51993254  .00008222  00000+0  29170-3 0  9992
2 50993  97.2973 123.1571 0007776  19.7047 340.4493 15.29291287229297
ETV-A1                  
1 51060U 22002CE  26063.82449605  .00015297  00000+0  40687-3 0  9994
2 51060  97.3000 130.5468 0005359  19.4650 340.6799 15.38305191229789
BRO-5                   
1 51061U 22002CF  26063.84972380  .00016577  00000+0  37465-3 0  9990
2 51061  97.3100 136.9125 0004735   6.6276 353.5034 15.43238455230141
LUDI TANCE 1-01A (L-SA*)
1 51284U 22007A   26063.84497778  .00001158  00000+0  13080-3 0  9991
2 51284  97.8115  72.7534 0001586  91.0454 269.0944 14.88417310222955
INSPIRESAT 1            
1 51657U 22013B   26063.58691149  .00168410  00000+0  10325-2 0  9994
2 51657  97.4482 110.6617 0004797  97.8169 262.3641 15.76795671226074
LUDI TANCE 1-01B (L-SA*)
1 51822U 22018A   26063.87854569  .00000195  00000+0  26860-4 0  9990
2 51822  97.8122  72.7752 0001619  89.4506 270.6896 14.88420398218194
2022-019D               
1 51827U 22019D   26063.85988878  .00057656  00000+0  75601-3 0  9995
2 51827  97.3703 151.7224 0007167 158.8909 201.2644 15.58354109223396
JILIN-1 GAOFEN 03D14    
1 51831U 22019H   26063.78599840  .00214407  00000+0  12578-2 0  9991
2 51831  97.3706 156.7020 0004663 160.6466 199.4978 15.77672910223707
2022-019J               
1 51832U 22019J   26063.87782799  .00001730  00000+0  83571-4 0  9995
2 51832  97.3548 129.3616 0007454 226.1367 133.9253 15.19936993221952
